[{"OBJECT_NAME":"STARLINK-30792","OBJECT_ID":"2023-170Q","EPOCH":"2026-03-09T08:39:02.435904","MEAN_MOTION":15.03789183,"ECCENTRICITY":0.00011754,"INCLINATION":42.9983,"RA_OF_ASC_NODE":197.3811,"ARG_OF_PERICENTER":295.0608,"MEAN_ANOMALY":65.0113,"EPHEMERIS_TYPE":0,"CLASSIFICATION_TYPE":"U","NORAD_CAT_ID":58220,"ELEMENT_SET_NO":999,"REV_AT_EPOCH":13023,"BSTAR":0.00051104631,"MEAN_MOTION_DOT":6.939e-5,"MEAN_MOTION_DDOT":0},{"OBJECT_NAME":"FENGYUN 1C DEB","OBJECT_ID":"1999-025CKD","EPOCH":"2026-02-28T13:50:26.166336","MEAN_MOTION":14.88090782,"ECCENTRICITY":0.00820173,"INCLINATION":99.4445,"RA_OF_ASC_NODE":2.7077,"ARG_OF_PERICENTER":355.7359,"MEAN_ANOMALY":4.3144,"EPHEMERIS_TYPE":0,"CLASSIFICATION_TYPE":"U","NORAD_CAT_ID":31878,"ELEMENT_SET_NO":999,"REV_AT_EPOCH":99250,"BSTAR":0.001844343,"MEAN_MOTION_DOT":0.00018017,"MEAN_MOTION_DDOT":0}]
